{"type": "FeatureCollection", "features": [ {"type": "Feature", "properties": {"norad_id": 33867, "name": "IRIDIUM 33 DEB", "group": "iridium-33-debris", "lat": 29.341670422839236, "lon": 172.09122992415683, "alt_km": 393.4616797336712, "timestamp": "2025-12-04T21:36:16.256867+00:00", "meta": {"OBJECT_NAME": "IRIDIUM 33 DEB", "OBJECT_ID": "1997-051AL", "EPOCH": "2025-12-04T13:14:30.177024", "MEAN_MOTION": 15.55427003, "ECCENTRICITY": 0.00122601, "INCLINATION": 86.3624, "RA_OF_ASC_NODE": 354.3184, "ARG_OF_PERICENTER": 96.5296, "MEAN_ANOMALY": 263.7363, "EPHEMERIS_TYPE": 0, "CLASSIFICATION_TYPE": "U", "NORAD_CAT_ID": 33867, "ELEMENT_SET_NO": 999, "REV_AT_EPOCH": 89383, "BSTAR": 0.010802297, "MEAN_MOTION_DOT": 0.0080017, "MEAN_MOTION_DDOT": 0}, "tle": {"line1": "1 33867U 97051AL  25338.55173816  .00800170  00000+0  10802-1 0  9993", "line2": "2 33867  86.3624 354.3184 0012260  96.5296 263.7363 15.55427003893837"}}, "geometry": {"type": "Point", "coordinates": [172.09122992415683, 29.341670422839236]}}, {"type": "Feature", "properties": {"norad_id": 33870, "name": "IRIDIUM 33 DEB", "group": "iridium-33-debris", "lat": -47.93546591254181, "lon": -114.35153886755914, "alt_km": 732.9570171503265, "timestamp": "2025-12-04T21:36:16.256878+00:00", "meta": {"OBJECT_NAME": "IRIDIUM 33 DEB", "OBJECT_ID": "1997-051AP", "EPOCH": "2025-12-04T12:31:35.253984", "MEAN_MOTION": 14.45780101, "ECCENTRICITY": 0.00205975, "INCLINATION": 86.3758, "RA_OF_ASC_NODE": 61.7832, "ARG_OF_PERICENTER": 205.3349, "MEAN_ANOMALY": 215.0687, "EPHEMERIS_TYPE": 0, "CLASSIFICATION_TYPE": "U", "NORAD_CAT_ID": 33870, "ELEMENT_SET_NO": 999, "REV_AT_EPOCH": 88018, "BSTAR": 0.0020187312, "MEAN_MOTION_DOT": 7.196e-05, "MEAN_MOTION_DDOT": 0}, "tle": {"line1": "1 33870U 97051AP  25338.52193581  .00007196  00000+0  20187-2 0  9990", "line2": "2 33870  86.3758  61.7832 0020597 205.3349 215.0687 14.45780101880181"}}, "geometry": {"type": "Point", "coordinates": [-114.35153886755914, -47.93546591254181]}}, {"type": "Feature", "properties": {"norad_id": 33881, "name": "IRIDIUM 33 DEB", "group": "iridium-33-debris", "lat": 24.130496862320655, "lon": -71.4745324551471, "alt_km": 673.401148998295, "timestamp": "2025-12-04T21:36:16.256888+00:00", "meta": {"OBJECT_NAME": "IRIDIUM 33 DEB", "OBJECT_ID": "1997-051BA", "EPOCH": "2025-12-04T15:59:51.160704", "MEAN_MOTION": 14.56341841, "ECCENTRICITY": 0.00611928, "INCLINATION": 86.3867, "RA_OF_ASC_NODE": 110.249, "ARG_OF_PERICENTER": 200.9329, "MEAN_ANOMALY": 171.205, "EPHEMERIS_TYPE": 0, "CLASSIFICATION_TYPE": "U", "NORAD_CAT_ID": 33881, "ELEMENT_SET_NO": 999, "REV_AT_EPOCH": 87383, "BSTAR": 0.0044929856, "MEAN_MOTION_DOT": 0.00020483, "MEAN_MOTION_DDOT": 0}, "tle": {"line1": "1 33881U 97051BA  25338.66656436  .00020483  00000+0  44930-2 0  9996", "line2": "2 33881  86.3867 110.2490 0061192 200.9329 171.2050 14.56341841873836"}}, "geometry": {"type": "Point", "coordinates": [-71.4745324551471, 24.130496862320655]}}, {"type": "Feature", "properties": {"norad_id": 33884, "name": "IRIDIUM 33 DEB", "group": "iridium-33-debris", "lat": -55.06256416036911, "lon": -161.42833024488172, "alt_km": 648.762901256905, "timestamp": "2025-12-04T21:36:16.256899+00:00", "meta": {"OBJECT_NAME": "IRIDIUM 33 DEB", "OBJECT_ID": "1997-051BD", "EPOCH": "2025-12-04T02:54:00.284832", "MEAN_MOTION": 14.77168398, "ECCENTRICITY": 0.00106133, "INCLINATION": 86.3697, "RA_OF_ASC_NODE": 13.7089, "ARG_OF_PERICENTER": 355.5376, "MEAN_ANOMALY": 57.9595, "EPHEMERIS_TYPE": 0, "CLASSIFICATION_TYPE": "U", "NORAD_CAT_ID": 33884, "ELEMENT_SET_NO": 999, "REV_AT_EPOCH": 88720, "BSTAR": 0.0029953103, "MEAN_MOTION_DOT": 0.00021274, "MEAN_MOTION_DDOT": 0}, "tle": {"line1": "1 33884U 97051BD  25338.12083663  .00021274  00000+0  29953-2 0  9993", "line2": "2 33884  86.3697  13.7089 0010613 355.5376  57.9595 14.77168398887209"}}, "geometry": {"type": "Point", "coordinates": [-161.42833024488172, -55.06256416036911]}}, {"type": "Feature", "properties": {"norad_id": 33886, "name": "IRIDIUM 33 DEB", "group": "iridium-33-debris", "lat": -63.70770952328372, "lon": -102.11674981887442, "alt_km": 771.2924143410901, "timestamp": "2025-12-04T21:36:16.256910+00:00", "meta": {"OBJECT_NAME": "IRIDIUM 33 DEB", "OBJECT_ID": "1997-051BF", "EPOCH": "2025-12-04T16:01:07.166784", "MEAN_MOTION": 14.3603684, "ECCENTRICITY": 0.00120788, "INCLINATION": 86.3832, "RA_OF_ASC_NODE": 70.626, "ARG_OF_PERICENTER": 272.7553, "MEAN_ANOMALY": 208.7294, "EPHEMERIS_TYPE": 0, "CLASSIFICATION_TYPE": "U", "NORAD_CAT_ID": 33886, "ELEMENT_SET_NO": 999, "REV_AT_EPOCH": 87936, "BSTAR": 0.00040080277, "MEAN_MOTION_DOT": 1.185e-05, "MEAN_MOTION_DDOT": 0}, "tle": {"line1": "1 33886U 97051BF  25338.66744406  .00001185  00000+0  40080-3 0  9997", "line2": "2 33886  86.3832  70.6260 0012078 272.7553 208.7294 14.36036840879360"}}, "geometry": {"type": "Point", "coordinates": [-102.11674981887442, -63.70770952328372]}}, {"type": "Feature", "properties": {"norad_id": 33887, "name": "IRIDIUM 33 DEB", "group": "iridium-33-debris", "lat": 32.68873471167735, "lon": -175.60578460445734, "alt_km": 767.2100603139788, "timestamp": "2025-12-04T21:36:16.256920+00:00", "meta": {"OBJECT_NAME": "IRIDIUM 33 DEB", "OBJECT_ID": "1997-051BG", "EPOCH": "2025-12-04T02:49:23.956896", "MEAN_MOTION": 14.37209414, "ECCENTRICITY": 0.00040371, "INCLINATION": 86.3051, "RA_OF_ASC_NODE": 7.1078, "ARG_OF_PERICENTER": 267.9412, "MEAN_ANOMALY": 152.9243, "EPHEMERIS_TYPE": 0, "CLASSIFICATION_TYPE": "U", "NORAD_CAT_ID": 33887, "ELEMENT_SET_NO": 999, "REV_AT_EPOCH": 88041, "BSTAR": 0.00026791584, "MEAN_MOTION_DOT": 8.17e-06, "MEAN_MOTION_DDOT": 0}, "tle": {"line1": "1 33887U 97051BG  25338.11763839  .00000817  00000+0  26792-3 0  9994", "line2": "2 33887  86.3051   7.1078 0004037 267.9412 152.9243 14.37209414880414"}}, "geometry": {"type": "Point", "coordinates": [-175.60578460445734, 32.68873471167735]}}, {"type": "Feature", "properties": {"norad_id": 33953, "name": "IRIDIUM 33 DEB", "group": "iridium-33-debris", "lat": -34.355525151408195, "lon": -120.3418877891422, "alt_km": 714.4684633156021, "timestamp": "2025-12-04T21:36:16.256931+00:00", "meta": {"OBJECT_NAME": "IRIDIUM 33 DEB", "OBJECT_ID": "1997-051BN", "EPOCH": "2025-12-04T16:22:27.124032", "MEAN_MOTION": 14.55195443, "ECCENTRICITY": 0.00185376, "INCLINATION": 86.3854, "RA_OF_ASC_NODE": 57.2761, "ARG_OF_PERICENTER": 127.3963, "MEAN_ANOMALY": 25.7835, "EPHEMERIS_TYPE": 0, "CLASSIFICATION_TYPE": "U", "NORAD_CAT_ID": 33953, "ELEMENT_SET_NO": 999, "REV_AT_EPOCH": 88186, "BSTAR": 0.003083952, "MEAN_MOTION_DOT": 0.00013398, "MEAN_MOTION_DDOT": 0}, "tle": {"line1": "1 33953U 97051BN  25338.68225838  .00013398  00000+0  30840-2 0  9998", "line2": "2 33953  86.3854  57.2761 0018537 127.3963  25.7835 14.55195443881864"}}, "geometry": {"type": "Point", "coordinates": [-120.3418877891422, -34.355525151408195]}}, {"type": "Feature", "properties": {"norad_id": 33960, "name": "IRIDIUM 33 DEB", "group": "iridium-33-debris", "lat": -82.96983200481164, "lon": 145.30890312705515, "alt_km": 627.2173945396107, "timestamp": "2025-12-04T21:36:16.256941+00:00", "meta": {"OBJECT_NAME": "IRIDIUM 33 DEB", "OBJECT_ID": "1997-051BV", "EPOCH": "2025-12-04T08:00:50.814144", "MEAN_MOTION": 14.84493479, "ECCENTRICITY": 0.00070442, "INCLINATION": 86.2531, "RA_OF_ASC_NODE": 293.4746, "ARG_OF_PERICENTER": 74.0008, "MEAN_ANOMALY": 45.7445, "EPHEMERIS_TYPE": 0, "CLASSIFICATION_TYPE": "U", "NORAD_CAT_ID": 33960, "ELEMENT_SET_NO": 999, "REV_AT_EPOCH": 88742, "BSTAR": 0.0078775525, "MEAN_MOTION_DOT": 0.00066968, "MEAN_MOTION_DDOT": 0}, "tle": {"line1": "1 33960U 97051BV  25338.33392146  .00066968  00000+0  78776-2 0  9996", "line2": "2 33960  86.2531 293.4746 0007044  74.0008  45.7445 14.84493479887428"}}, "geometry": {"type": "Point", "coordinates": [145.30890312705515, -82.96983200481164]}}, {"type": "Feature", "properties": {"norad_id": 33966, "name": "IRIDIUM 33 DEB", "group": "iridium-33-debris", "lat": 39.26570254264489, "lon": -133.56408930483755, "alt_km": 723.0888683465218, "timestamp": "2025-12-04T21:36:16.256954+00:00", "meta": {"OBJECT_NAME": "IRIDIUM 33 DEB", "OBJECT_ID": "1997-051CB", "EPOCH": "2025-12-04T14:56:24.662688", "MEAN_MOTION": 14.49540808, "ECCENTRICITY": 0.00065046, "INCLINATION": 86.3934, "RA_OF_ASC_NODE": 49.5105, "ARG_OF_PERICENTER": 217.124, "MEAN_ANOMALY": 275.3967, "EPHEMERIS_TYPE": 0, "CLASSIFICATION_TYPE": "U", "NORAD_CAT_ID": 33966, "ELEMENT_SET_NO": 999, "REV_AT_EPOCH": 88324, "BSTAR": 0.0013164776, "MEAN_MOTION_DOT": 5.068e-05, "MEAN_MOTION_DDOT": 0}, "tle": {"line1": "1 33966U 97051CB  25338.62250767  .00005068  00000+0  13165-2 0  9991", "line2": "2 33966  86.3934  49.5105 0006504 217.1240 275.3967 14.49540808883245"}}, "geometry": {"type": "Point", "coordinates": [-133.56408930483755, 39.26570254264489]}}, {"type": "Feature", "properties": {"norad_id": 34071, "name": "IRIDIUM 33 DEB", "group": "iridium-33-debris", "lat": -30.836038868069245, "lon": -156.5779681397592, "alt_km": 732.728396658521, "timestamp": "2025-12-04T21:36:16.256965+00:00", "meta": {"OBJECT_NAME": "IRIDIUM 33 DEB", "OBJECT_ID": "1997-051CE", "EPOCH": "2025-12-04T15:39:54.142272", "MEAN_MOTION": 14.49409257, "ECCENTRICITY": 0.00095435, "INCLINATION": 86.3464, "RA_OF_ASC_NODE": 21.3435, "ARG_OF_PERICENTER": 129.5032, "MEAN_ANOMALY": 230.7017, "EPHEMERIS_TYPE": 0, "CLASSIFICATION_TYPE": "U", "NORAD_CAT_ID": 34071, "ELEMENT_SET_NO": 999, "REV_AT_EPOCH": 88217, "BSTAR": 0.0013811651, "MEAN_MOTION_DOT": 5.304e-05, "MEAN_MOTION_DDOT": 0}, "tle": {"line1": "1 34071U 97051CE  25338.65270998  .00005304  00000+0  13812-2 0  9992", "line2": "2 34071  86.3464  21.3435 0009543 129.5032 230.7017 14.49409257882170"}}, "geometry": {"type": "Point", "coordinates": [-156.5779681397592, -30.836038868069245]}}]}